CCSDS_OMM_VERS = 2.0
CREATION_DATE  = 
ORIGINATOR     = 

OBJECT_NAME    = SL-16 R/B
OBJECT_ID      = 1998-043G
CENTER_NAME    = EARTH
REF_FRAME      = TEME
TIME_SYSTEM    = UTC
MEAN_ELEMENT_THEORY = SGP/SGP4

EPOCH          = 2026-01-14T11:52:49.130112
MEAN_MOTION    = 14.26034410
ECCENTRICITY   = .00100013
INCLINATION    = 98.8167
RA_OF_ASC_NODE = 327.5040
ARG_OF_PERICENTER = 165.6694
MEAN_ANOMALY   = 194.4771

EPHEMERIS_TYPE = 0
CLASSIFICATION_TYPE = U
NORAD_CAT_ID   = 25400
ELEMENT_SET_NO = 999
REV_AT_EPOCH   = 43126
BSTAR          = .29756158E-4
MEAN_MOTION_DOT = .26E-6
MEAN_MOTION_DDOT = 0

CCSDS_OMM_VERS = 2.0
CREATION_DATE  = 
ORIGINATOR     = 

OBJECT_NAME    = SL-16 R/B
OBJECT_ID      = 1998-045B
CENTER_NAME    = EARTH
REF_FRAME      = TEME
TIME_SYSTEM    = UTC
MEAN_ELEMENT_THEORY = SGP/SGP4

EPOCH          = 2026-01-14T04:27:14.241600
MEAN_MOTION    = 14.16180104
ECCENTRICITY   = .00053271
INCLINATION    = 71.0120
RA_OF_ASC_NODE = 296.1945
ARG_OF_PERICENTER = 117.3378
MEAN_ANOMALY   = 242.8288

EPHEMERIS_TYPE = 0
CLASSIFICATION_TYPE = U
NORAD_CAT_ID   = 25407
ELEMENT_SET_NO = 999
REV_AT_EPOCH   = 41938
BSTAR          = .43260481E-4
MEAN_MOTION_DOT = .38E-6
MEAN_MOTION_DDOT = 0

CCSDS_OMM_VERS = 2.0
CREATION_DATE  = 
ORIGINATOR     = 

OBJECT_NAME    = ISS (ZARYA)
OBJECT_ID      = 1998-067A
CENTER_NAME    = EARTH
REF_FRAME      = TEME
TIME_SYSTEM    = UTC
MEAN_ELEMENT_THEORY = SGP/SGP4

EPOCH          = 2026-01-14T15:04:24.142944
MEAN_MOTION    = 15.49289811
ECCENTRICITY   = .00077638
INCLINATION    = 51.6333
RA_OF_ASC_NODE = 339.6562
ARG_OF_PERICENTER = 17.9854
MEAN_ANOMALY   = 342.1408

EPHEMERIS_TYPE = 0
CLASSIFICATION_TYPE = U
NORAD_CAT_ID   = 25544
ELEMENT_SET_NO = 999
REV_AT_EPOCH   = 54794
BSTAR          = .13043682E-3
MEAN_MOTION_DOT = .6818E-4
MEAN_MOTION_DDOT = 0

CCSDS_OMM_VERS = 2.0
CREATION_DATE  = 
ORIGINATOR     = 

OBJECT_NAME    = CZ-4B R/B
OBJECT_ID      = 1999-025C
CENTER_NAME    = EARTH
REF_FRAME      = TEME
TIME_SYSTEM    = UTC
MEAN_ELEMENT_THEORY = SGP/SGP4

EPOCH          = 2026-01-14T13:35:36.382848
MEAN_MOTION    = 14.18252187
ECCENTRICITY   = .00378469
INCLINATION    = 98.6726
RA_OF_ASC_NODE = 60.1049
ARG_OF_PERICENTER = 139.4783
MEAN_ANOMALY   = 341.8704

EPHEMERIS_TYPE = 0
CLASSIFICATION_TYPE = U
NORAD_CAT_ID   = 25732
ELEMENT_SET_NO = 999
REV_AT_EPOCH   = 38049
BSTAR          = .30075917E-4
MEAN_MOTION_DOT = .19E-6
MEAN_MOTION_DDOT = 0

CCSDS_OMM_VERS = 2.0
CREATION_DATE  = 
ORIGINATOR     = 

OBJECT_NAME    = OKEAN-O
OBJECT_ID      = 1999-039A
CENTER_NAME    = EARTH
REF_FRAME      = TEME
TIME_SYSTEM    = UTC
MEAN_ELEMENT_THEORY = SGP/SGP4

EPOCH          = 2026-01-14T10:34:01.376544
MEAN_MOTION    = 14.80226450
ECCENTRICITY   = .0001675
INCLINATION    = 97.9555
RA_OF_ASC_NODE = 74.8522
ARG_OF_PERICENTER = 108.2136
MEAN_ANOMALY   = 251.9258

EPHEMERIS_TYPE = 0
CLASSIFICATION_TYPE = U
NORAD_CAT_ID   = 25860
ELEMENT_SET_NO = 999
REV_AT_EPOCH   = 42636
BSTAR          = .76922414E-4
MEAN_MOTION_DOT = .533E-5
MEAN_MOTION_DDOT = 0

CCSDS_OMM_VERS = 2.0
CREATION_DATE  = 
ORIGINATOR     = 

OBJECT_NAME    = SL-16 R/B
OBJECT_ID      = 1999-039B
CENTER_NAME    = EARTH
REF_FRAME      = TEME
TIME_SYSTEM    = UTC
MEAN_ELEMENT_THEORY = SGP/SGP4

EPOCH          = 2026-01-14T03:12:51.405120
MEAN_MOTION    = 14.81640293
ECCENTRICITY   = .00161258
INCLINATION    = 98.0079
RA_OF_ASC_NODE = 73.2801
ARG_OF_PERICENTER = 76.0242
MEAN_ANOMALY   = 284.2762

EPHEMERIS_TYPE = 0
CLASSIFICATION_TYPE = U
NORAD_CAT_ID   = 25861
ELEMENT_SET_NO = 999
REV_AT_EPOCH   = 42878
BSTAR          = .58747713E-4
MEAN_MOTION_DOT = .409E-5
MEAN_MOTION_DDOT = 0

CCSDS_OMM_VERS = 2.0
CREATION_DATE  = 
ORIGINATOR     = 

OBJECT_NAME    = DELTA 2 R/B
OBJECT_ID      = 1999-041E
CENTER_NAME    = EARTH
REF_FRAME      = TEME
TIME_SYSTEM    = UTC
MEAN_ELEMENT_THEORY = SGP/SGP4

EPOCH          = 2026-01-14T10:12:34.673184
MEAN_MOTION    = 14.11548353
ECCENTRICITY   = .050364
INCLINATION    = 51.7609
RA_OF_ASC_NODE = 157.9574
ARG_OF_PERICENTER = 188.1220
MEAN_ANOMALY   = 171.1324

EPHEMERIS_TYPE = 0
CLASSIFICATION_TYPE = U
NORAD_CAT_ID   = 25876
ELEMENT_SET_NO = 999
REV_AT_EPOCH   = 35536
BSTAR          = .38597819E-3
MEAN_MOTION_DOT = .2165E-4
MEAN_MOTION_DDOT = 0

CCSDS_OMM_VERS = 2.0
CREATION_DATE  = 
ORIGINATOR     = 

OBJECT_NAME    = HELIOS 1B
OBJECT_ID      = 1999-064A
CENTER_NAME    = EARTH
REF_FRAME      = TEME
TIME_SYSTEM    = UTC
MEAN_ELEMENT_THEORY = SGP/SGP4

EPOCH          = 2026-01-14T07:07:34.750272
MEAN_MOTION    = 14.87436273
ECCENTRICITY   = .00005493
INCLINATION    = 98.1747
RA_OF_ASC_NODE = 274.9299
ARG_OF_PERICENTER = 133.5149
MEAN_ANOMALY   = 226.6112

EPHEMERIS_TYPE = 0
CLASSIFICATION_TYPE = U
NORAD_CAT_ID   = 25977
ELEMENT_SET_NO = 999
REV_AT_EPOCH   = 67717
BSTAR          = .15182717E-3
MEAN_MOTION_DOT = .1316E-4
MEAN_MOTION_DDOT = 0

CCSDS_OMM_VERS = 2.0
CREATION_DATE  = 
ORIGINATOR     = 

OBJECT_NAME    = TERRA
OBJECT_ID      = 1999-068A
CENTER_NAME    = EARTH
REF_FRAME      = TEME
TIME_SYSTEM    = UTC
MEAN_ELEMENT_THEORY = SGP/SGP4

EPOCH          = 2026-01-14T13:12:18.004896
MEAN_MOTION    = 14.60943795
ECCENTRICITY   = .00023976
INCLINATION    = 97.9702
RA_OF_ASC_NODE = 70.0230
ARG_OF_PERICENTER = 25.1909
MEAN_ANOMALY   = 83.1792

EPHEMERIS_TYPE = 0
CLASSIFICATION_TYPE = U
NORAD_CAT_ID   = 25994
ELEMENT_SET_NO = 999
REV_AT_EPOCH   = 38717
BSTAR          = .68014236E-4
MEAN_MOTION_DOT = .289E-5
MEAN_MOTION_DDOT = 0

CCSDS_OMM_VERS = 2.0
CREATION_DATE  = 
ORIGINATOR     = 

OBJECT_NAME    = SL-16 R/B
OBJECT_ID      = 2000-006B
CENTER_NAME    = EARTH
REF_FRAME      = TEME
TIME_SYSTEM    = UTC
MEAN_ELEMENT_THEORY = SGP/SGP4

EPOCH          = 2026-01-14T12:57:40.365792
MEAN_MOTION    = 14.15813896
ECCENTRICITY   = .00189725
INCLINATION    = 71.0004
RA_OF_ASC_NODE = 211.6921
ARG_OF_PERICENTER = 264.6974
MEAN_ANOMALY   = 95.1984

EPHEMERIS_TYPE = 0
CLASSIFICATION_TYPE = U
NORAD_CAT_ID   = 26070
ELEMENT_SET_NO = 999
REV_AT_EPOCH   = 34089
BSTAR          = -.11161956E-3
MEAN_MOTION_DOT = -.268E-5
MEAN_MOTION_DDOT = 0

CCSDS_OMM_VERS = 2.0
CREATION_DATE  = 
ORIGINATOR     = 

OBJECT_NAME    = TITAN 4B R/B
OBJECT_ID      = 2000-047B
CENTER_NAME    = EARTH
REF_FRAME      = TEME
TIME_SYSTEM    = UTC
MEAN_ELEMENT_THEORY = SGP/SGP4

EPOCH          = 2026-01-14T13:19:02.289504
MEAN_MOTION    = 15.09047423
ECCENTRICITY   = .00370225
INCLINATION    = 67.9874
RA_OF_ASC_NODE = 192.6752
ARG_OF_PERICENTER = 103.8411
MEAN_ANOMALY   = 256.6862

EPHEMERIS_TYPE = 0
CLASSIFICATION_TYPE = U
NORAD_CAT_ID   = 26474
ELEMENT_SET_NO = 999
REV_AT_EPOCH   = 38474
BSTAR          = .14226597E-3
MEAN_MOTION_DOT = .2156E-4
MEAN_MOTION_DDOT = 0

CCSDS_OMM_VERS = 2.0
CREATION_DATE  = 
ORIGINATOR     = 

OBJECT_NAME    = ENVISAT
OBJECT_ID      = 2002-009A
CENTER_NAME    = EARTH
REF_FRAME      = TEME
TIME_SYSTEM    = UTC
MEAN_ELEMENT_THEORY = SGP/SGP4

EPOCH          = 2026-01-14T10:57:07.153920
MEAN_MOTION    = 14.39013117
ECCENTRICITY   = .00011654
INCLINATION    = 98.3643
RA_OF_ASC_NODE = 329.3754
ARG_OF_PERICENTER = 90.9779
MEAN_ANOMALY   = 19.5159

EPHEMERIS_TYPE = 0
CLASSIFICATION_TYPE = U
NORAD_CAT_ID   = 27386
ELEMENT_SET_NO = 999
REV_AT_EPOCH   = 25137
BSTAR          = .38457423E-4
MEAN_MOTION_DOT = .76E-6
MEAN_MOTION_DDOT = 0

