SL-16 R/B               
1 25400U 98043G   26014.49501308  .00000026  00000+0  29756-4 0  9998
2 25400  98.8167 327.5040 0010001 165.6694 194.4771 14.26034410431266
SL-16 R/B               
1 25407U 98045B   26014.18558150  .00000038  00000+0  43260-4 0  9999
2 25407  71.0120 296.1945 0005327 117.3378 242.8288 14.16180104419389
ISS (ZARYA)             
1 25544U 98067A   26014.62805721  .00006818  00000+0  13044-3 0  9991
2 25544  51.6333 339.6562 0007763  17.9854 342.1408 15.49289811547943
CZ-4B R/B               
1 25732U 99025C   26014.56639332  .00000019  00000+0  30076-4 0  9993
2 25732  98.6726  60.1049 0037846 139.4783 341.8704 14.18252187380492
OKEAN-O                 
1 25860U 99039A   26014.44029371  .00000533  00000+0  76922-4 0  9994
2 25860  97.9555  74.8522 0001675 108.2136 251.9258 14.80226450426366
SL-16 R/B               
1 25861U 99039B   26014.13392830  .00000409  00000+0  58748-4 0  9992
2 25861  98.0079  73.2801 0016125  76.0242 284.2762 14.81640293428782
DELTA 2 R/B             
1 25876U 99041E   26014.42540131  .00002165  00000+0  38598-3 0  9993
2 25876  51.7609 157.9574 0503640 188.1220 171.1324 14.11548353355362
HELIOS 1B               
1 25977U 99064A   26014.29692998  .00001316  00000+0  15183-3 0  9996
2 25977  98.1747 274.9299 0000549 133.5149 226.6112 14.87436273677177
TERRA                   
1 25994U 99068A   26014.55020839  .00000289  00000+0  68014-4 0  9997
2 25994  97.9702  70.0230 0002397  25.1909  83.1792 14.60943795387178
SL-16 R/B               
1 26070U 00006B   26014.54005053 -.00000268  00000+0 -11162-3 0  9997
2 26070  71.0004 211.6921 0018972 264.6974  95.1984 14.15813896340892
TITAN 4B R/B            
1 26474U 00047B   26014.55488761  .00002156  00000+0  14227-3 0  9993
2 26474  67.9874 192.6752 0037022 103.8411 256.6862 15.09047423384746
ENVISAT                 
1 27386U 02009A   26014.45633280  .00000076  00000+0  38457-4 0  9994
2 27386  98.3643 329.3754 0001165  90.9779  19.5159 14.39013117251376
